LANDSAT 9               
1 49260U 21088A   24183.45390755  .00000805  00000+0  18879-3 0  9994
2 49260  98.2313 252.8526 0001358  94.6522 265.4831 14.57081963146761
